start=new Date('2023-03-18T00:00:00.000Z').valueOf();
sats=[{"TLE_LINE1":"1 53416U 22097AE  23076.88205656  .00021579  00000-0  13687-2 0  9998","SITE":"AFETR","REV_AT_EPOCH":"3440","OBJECT_ID":"2022-097AE","DECAY_DATE":null,"EPHEMERIS_TYPE":"0","COUNTRY_CODE":"US","OBJECT_NAME":"STARLINK-4480","ELEMENT_SET_NO":"999","SEMIMAJOR_AXIS":"6917.796","EPOCH":"2023-03-17T21:10:09.686784","ARG_OF_PERICENTER":"54.2804","RA_OF_ASC_NODE":"317.4358","PERIAPSIS":"538.549","FILE":"3863544","OBJECT_TYPE":"PAYLOAD","GP_ID":"228356885","LAUNCH_DATE":"2022-08-10","CLASSIFICATION_TYPE":"U","MEAN_MOTION":"15.08867720","TIME_SYSTEM":"UTC","CENTER_NAME":"EARTH","PERIOD":"95.436","ECCENTRICITY":"0.00016070","BSTAR":"0.00136870000000","INCLINATION":"53.2166","TLE_LINE2":"2 53416  53.2166 317.4358 0001607  54.2804 305.8337 15.08867720 34406","NORAD_CAT_ID":"53416","MEAN_MOTION_DDOT":"0.0000000000000","MEAN_ELEMENT_THEORY":"SGP4","REF_FRAME":"TEME","MEAN_MOTION_DOT":"0.00021579","APOAPSIS":"540.772","MEAN_ANOMALY":"305.8337","RCS_SIZE":"LARGE"},{"DECAY_DATE":null,"COUNTRY_CODE":"US","EPHEMERIS_TYPE":"0","OBJECT_NAME":"STARLINK-4484","TLE_LINE1":"1 53417U 22097AF  23076.36318247  .00008177  00000-0  53131-3 0  9991","SITE":"AFETR","OBJECT_ID":"2022-097AF","REV_AT_EPOCH":"3432","RA_OF_ASC_NODE":"319.8077","ARG_OF_PERICENTER":"72.1685","PERIAPSIS":"538.814","ELEMENT_SET_NO":"999","SEMIMAJOR_AXIS":"6917.899","EPOCH":"2023-03-17T08:42:58.965408","GP_ID":"228324583","LAUNCH_DATE":"2022-08-10","MEAN_MOTION":"15.08834061","CLASSIFICATION_TYPE":"U","TIME_SYSTEM":"UTC","ECCENTRICITY":"0.00013720","PERIOD":"95.438","CENTER_NAME":"EARTH","BSTAR":"0.00053131000000","FILE":"3863278","OBJECT_TYPE":"PAYLOAD","APOAPSIS":"540.713","MEAN_ANOMALY":"287.9457","RCS_SIZE":"LARGE","INCLINATION":"53.2182","NORAD_CAT_ID":"53417","TLE_LINE2":"2 53417  53.2182 319.8077 0001372  72.1685 287.9457 15.08834061 34320","MEAN_MOTION_DDOT":"0.0000000000000","MEAN_ELEMENT_THEORY":"SGP4","MEAN_MOTION_DOT":"0.00008177","REF_FRAME":"TEME"},{"SITE":"AFETR","TLE_LINE1":"1 53418U 22097AG  23076.91972455  .00011334  00000-0  72883-3 0  9994","REV_AT_EPOCH":"3458","OBJECT_ID":"2022-097AG","OBJECT_NAME":"STARLINK-4481","COUNTRY_CODE":"US","DECAY_DATE":null,"EPHEMERIS_TYPE":"0","SEMIMAJOR_AXIS":"6917.845","ELEMENT_SET_NO":"999","EPOCH":"2023-03-17T22:04:24.201120","ARG_OF_PERICENTER":"52.0106","RA_OF_ASC_NODE":"306.8782","PERIAPSIS":"539.339","FILE":"3863544","OBJECT_TYPE":"PAYLOAD","CLASSIFICATION_TYPE":"U","MEAN_MOTION":"15.08851690","TIME_SYSTEM":"UTC","GP_ID":"228356384","LAUNCH_DATE":"2022-08-10","BSTAR":"0.00072883000000","CENTER_NAME":"EARTH","ECCENTRICITY":"0.00005360","PERIOD":"95.437","TLE_LINE2":"2 53418  53.2160 306.8782 0000536  52.0106 308.0934 15.08851690 34582","NORAD_CAT_ID":"53418","INCLINATION":"53.2160","REF_FRAME":"TEME","MEAN_MOTION_DOT":"0.00011334","MEAN_MOTION_DDOT":"0.0000000000000","MEAN_ELEMENT_THEORY":"SGP4","MEAN_ANOMALY":"308.0934","APOAPSIS":"540.080","RCS_SIZE":"LARGE"},{"CENTER_NAME":"EARTH","ECCENTRICITY":"0.00013790","PERIOD":"95.438","BSTAR":"0.00052359000000","GP_ID":"228356135","LAUNCH_DATE":"2022-08-10","CLASSIFICATION_TYPE":"U","MEAN_MOTION":"15.08838693","TIME_SYSTEM":"UTC","OBJECT_TYPE":"PAYLOAD","FILE":"3863544","RCS_SIZE":"LARGE","APOAPSIS":"540.703","MEAN_ANOMALY":"247.4212","MEAN_MOTION_DDOT":"0.0000000000000","MEAN_ELEMENT_THEORY":"SGP4","REF_FRAME":"TEME","MEAN_MOTION_DOT":"0.00008055","INCLINATION":"53.2152","NORAD_CAT_ID":"53419","TLE_LINE2":"2 53419  53.2152 317.4438 0001379 112.6926 247.4212 15.08838693 34403","DECAY_DATE":null,"COUNTRY_CODE":"US","EPHEMERIS_TYPE":"0","OBJECT_NAME":"STARLINK-4476","REV_AT_EPOCH":"3440","OBJECT_ID":"2022-097AH","TLE_LINE1":"1 53419U 22097AH  23076.88941628  .00008055  00000-0  52359-3 0  9991","SITE":"AFETR","PERIAPSIS":"538.795","ARG_OF_PERICENTER":"112.6926","RA_OF_ASC_NODE":"317.4438","EPOCH":"2023-03-17T21:20:45.566592","ELEMENT_SET_NO":"999","SEMIMAJOR_AXIS":"6917.884"},{"NORAD_CAT_ID":"53420","TLE_LINE2":"2 53420  53.2154 317.4965 0001694 110.9659 249.1514 15.08840731 34406","INCLINATION":"53.2154","REF_FRAME":"TEME","MEAN_MOTION_DOT":"0.00007718","MEAN_MOTION_DDOT":"0.0000000000000","MEAN_ELEMENT_THEORY":"SGP4","MEAN_ANOMALY":"249.1514","APOAPSIS":"540.915","RCS_SIZE":"LARGE","FILE":"3863544","OBJECT_TYPE":"PAYLOAD","MEAN_MOTION":"15.08840731","CLASSIFICATION_TYPE":"U","TIME_SYSTEM":"UTC","GP_ID":"228357385","LAUNCH_DATE":"2022-08-10","BSTAR":"0.00050248000000","CENTER_NAME":"EARTH","ECCENTRICITY":"0.00016940","PERIOD":"95.438","SEMIMAJOR_AXIS":"6917.878","ELEMENT_SET_NO":"999","EPOCH":"2023-03-17T21:04:51.758976","ARG_OF_PERICENTER":"110.9659","RA_OF_ASC_NODE":"317.4965","PERIAPSIS":"538.571","SITE":"AFETR","TLE_LINE1":"1 53420U 22097AJ  23076.87837684  .00007718  00000-0  50248-3 0  9998","REV_AT_EPOCH":"3440","OBJECT_ID":"2022-097AJ","OBJECT_NAME":"STARLINK-4552","COUNTRY_CODE":"US","DECAY_DATE":null,"EPHEMERIS_TYPE":"0"},{"OBJECT_ID":"2022-097AK","REV_AT_EPOCH":"3440","TLE_LINE1":"1 53421U 22097AK  23076.88574063  .00005053  00000-0  33536-3 0  9990","SITE":"AFETR","DECAY_DATE":null,"COUNTRY_CODE":"US","EPHEMERIS_TYPE":"0","OBJECT_NAME":"STARLINK-4545","EPOCH":"2023-03-17T21:15:27.990432","ELEMENT_SET_NO":"999","SEMIMAJOR_AXIS":"6917.887","PERIAPSIS":"538.647","RA_OF_ASC_NODE":"317.4641","ARG_OF_PERICENTER":"86.7976","OBJECT_TYPE":"PAYLOAD","FILE":"3863544","PERIOD":"95.438","ECCENTRICITY":"0.00015960","CENTER_NAME":"EARTH","BSTAR":"0.00033536000000","LAUNCH_DATE":"2022-08-10","GP_ID":"228357635","TIME_SYSTEM":"UTC","CLASSIFICATION_TYPE":"U","MEAN_MOTION":"15.08837978","MEAN_ELEMENT_THEORY":"SGP4","MEAN_MOTION_DDOT":"0.0000000000000","MEAN_MOTION_DOT":"0.00005053","REF_FRAME":"TEME","INCLINATION":"53.2161","TLE_LINE2":"2 53421  53.2161 317.4641 0001596  86.7976 273.3199 15.08837978 34406","NORAD_CAT_ID":"53421","RCS_SIZE":"LARGE","APOAPSIS":"540.856","MEAN_ANOMALY":"273.3199"},{"SITE":"AFETR","TLE_LINE1":"1 53422U 22097AL  23076.87102446  .00027200  00000-0  17192-2 0  9999","OBJECT_ID":"2022-097AL","REV_AT_EPOCH":"3442","OBJECT_NAME":"STARLINK-4546","EPHEMERIS_TYPE":"0","DECAY_DATE":null,"COUNTRY_CODE":"US","SEMIMAJOR_AXIS":"6917.795","ELEMENT_SET_NO":"999","EPOCH":"2023-03-17T20:54:16.513344","RA_OF_ASC_NODE":"317.5341","ARG_OF_PERICENTER":"56.3085","PERIAPSIS":"538.693","FILE":"3863544","OBJECT_TYPE":"PAYLOAD","CLASSIFICATION_TYPE":"U","MEAN_MOTION":"15.08867934","TIME_SYSTEM":"UTC","GP_ID":"228355885","LAUNCH_DATE":"2022-08-10","BSTAR":"0.00171920000000","ECCENTRICITY":"0.00013980","PERIOD":"95.436","CENTER_NAME":"EARTH","TLE_LINE2":"2 53422  53.2153 317.5341 0001398  56.3085 303.8040 15.08867934 34421","NORAD_CAT_ID":"53422","INCLINATION":"53.2153","MEAN_MOTION_DOT":"0.00027200","REF_FRAME":"TEME","MEAN_MOTION_DDOT":"0.0000000000000","MEAN_ELEMENT_THEORY":"SGP4","MEAN_ANOMALY":"303.8040","APOAPSIS":"540.627","RCS_SIZE":"LARGE"},{"PERIAPSIS":"538.669","RA_OF_ASC_NODE":"317.4870","ARG_OF_PERICENTER":"80.4212","EPOCH":"2023-03-17T21:11:32.587584","ELEMENT_SET_NO":"999","SEMIMAJOR_AXIS":"6917.812","DECAY_DATE":null,"EPHEMERIS_TYPE":"0","COUNTRY_CODE":"US","OBJECT_NAME":"STARLINK-4539","OBJECT_ID":"2022-097AM","REV_AT_EPOCH":"3440","TLE_LINE1":"1 53423U 22097AM  23076.88301606  .00023338  00000-0  14787-2 0  9995","SITE":"AFETR","RCS_SIZE":"LARGE","APOAPSIS":"540.686","MEAN_ANOMALY":"279.6945","MEAN_ELEMENT_THEORY":"SGP4","MEAN_MOTION_DDOT":"0.0000000000000","MEAN_MOTION_DOT":"0.00023338","REF_FRAME":"TEME","INCLINATION":"53.2159","TLE_LINE2":"2 53423  53.2159 317.4870 0001458  80.4212 279.6945 15.08862288 34400","NORAD_CAT_ID":"53423","ECCENTRICITY":"0.00014580","PERIOD":"95.436","CENTER_NAME":"EARTH","BSTAR":"0.00147870000000","GP_ID":"228356635","LAUNCH_DATE":"2022-08-10","CLASSIFICATION_TYPE":"U","MEAN_MOTION":"15.08862288","TIME_SYSTEM":"UTC","OBJECT_TYPE":"PAYLOAD","FILE":"3863544"},{"EPOCH":"2023-03-17T09:35:59.947296","SEMIMAJOR_AXIS":"6917.902","ELEMENT_SET_NO":"999","PERIAPSIS":"538.842","ARG_OF_PERICENTER":"75.4942","RA_OF_ASC_NODE":"319.6427","REV_AT_EPOCH":"3435","OBJECT_ID":"2022-097AN","SITE":"AFETR","TLE_LINE1":"1 53424U 22097AN  23076.39999939  .00027918  00000-0  17656-2 0  9990","OBJECT_NAME":"STARLINK-4532","COUNTRY_CODE":"US","DECAY_DATE":null,"EPHEMERIS_TYPE":"0","REF_FRAME":"TEME","MEAN_MOTION_DOT":"0.00027918","MEAN_MOTION_DDOT":"0.0000000000000","MEAN_ELEMENT_THEORY":"SGP4","NORAD_CAT_ID":"53424","TLE_LINE2":"2 53424  53.2167 319.6427 0001338  75.4942 284.6198 15.08832838 34351","INCLINATION":"53.2167","RCS_SIZE":"LARGE","MEAN_ANOMALY":"284.6198","APOAPSIS":"540.693","OBJECT_TYPE":"PAYLOAD","FILE":"3863278","BSTAR":"0.00176560000000","CENTER_NAME":"EARTH","PERIOD":"95.438","ECCENTRICITY":"0.00013380","MEAN_MOTION":"15.08832838","CLASSIFICATION_TYPE":"U","TIME_SYSTEM":"UTC","GP_ID":"228324334","LAUNCH_DATE":"2022-08-10"},{"APOAPSIS":"540.888","MEAN_ANOMALY":"309.2213","RCS_SIZE":"LARGE","INCLINATION":"53.2170","NORAD_CAT_ID":"53425","TLE_LINE2":"2 53425  53.2170 317.5188 0001509  50.8913 309.2213 15.08807704 34392","MEAN_ELEMENT_THEORY":"SGP4","MEAN_MOTION_DDOT":"0.0000000000000","MEAN_MOTION_DOT":"0.00007610","REF_FRAME":"TEME","GP_ID":"228357136","LAUNCH_DATE":"2022-08-10","CLASSIFICATION_TYPE":"U","TIME_SYSTEM":"UTC","MEAN_MOTION":"15.08807704","ECCENTRICITY":"0.00015090","PERIOD":"95.440","CENTER_NAME":"EARTH","BSTAR":"0.00049614000000","FILE":"3863544","OBJECT_TYPE":"PAYLOAD","RA_OF_ASC_NODE":"317.5188","ARG_OF_PERICENTER":"50.8913","PERIAPSIS":"538.800","ELEMENT_SET_NO":"999","SEMIMAJOR_AXIS":"6917.979","EPOCH":"2023-03-17T20:59:36.519936","DECAY_DATE":null,"EPHEMERIS_TYPE":"0","COUNTRY_CODE":"US","OBJECT_NAME":"STARLINK-4531","TLE_LINE1":"1 53425U 22097AP  23076.87472824  .00007610  00000-0  49614-3 0  9990","SITE":"AFETR","OBJECT_ID":"2022-097AP","REV_AT_EPOCH":"3439"}];
